COMMENT,ORIGINATOR,NORAD_CAT_ID,OBJECT_NAME,OBJECT_TYPE,CLASSIFICATION_TYPE,INTLDES,EPOCH,EPOCH_MICROSECONDS,MEAN_MOTION,ECCENTRICITY,INCLINATION,RA_OF_ASC_NODE,ARG_OF_PERICENTER,MEAN_ANOMALY,EPHEMERIS_TYPE,ELEMENT_SET_NO,REV_AT_EPOCH,BSTAR,MEAN_MOTION_DOT,MEAN_MOTION_DDOT,FILE,TLE_LINE0,TLE_LINE1,TLE_LINE2,OBJECT_ID,OBJECT_NUMBER,SEMIMAJOR_AXIS,PERIOD,APOGEE,PERIGEE
"GENERATED VIA SPACETRACK.ORG API","JSPOC","15963","SL-12 R/B(2)","ROCKET BODY","U","85070F","2016-01-10 18:41:21","231744","0.97804691","0.0008746","15.617","354.3858","99.4309","322.732","0","999","8243","0","-1.17e-06","0","1978663","0 SL-12 R/B(2)","1 15963U 85070F   16010.77871796 -.00000117  00000-0  00000+0 0  9993","2 15963  15.6170 354.3858 0008746  99.4309 322.7320  0.97804691 82431","1985-070F","15963","42870.845","1472.322","36530.205","36455.215"
"GENERATED VIA SPACETRACK.ORG API","JSPOC","20624","COSMOS 2082","PAYLOAD","U","90046A","2016-01-10 18:41:30","914592","14.14186473","0.0013068","71.0393","230.0501","108.5365","251.7179","0","999","32297","0.00017665","2.9e-06","0","1979034","0 COSMOS 2082","1 20624U 90046A   16010.77883003 +.00000290 +00000-0 +17665-3 0  9996","2 20624 071.0393 230.0501 0013068 108.5365 251.7179 14.14186473322970","1990-046A","20624","7223.217","101.825","854.522","835.643"
"GENERATED VIA SPACETRACK.ORG API","JSPOC","10355","SL-8 R/B","ROCKET BODY","U","77087B","2016-01-10 18:41:31","113312","13.75750986","0.0034914","82.9709","74.8138","75.3531","53.1387","0","999","92350","1.7541e-05","3.3e-07","0","1978717","0 SL-8 R/B","1 10355U 77087B   16010.77883233  .00000033  00000-0  17541-4 0  9990","2 10355  82.9709  74.8138 0034914  75.3531  53.1387 13.75750986923504","1977-087B","10355","7357.133","104.670","1004.684","953.311"
"GENERATED VIA SPACETRACK.ORG API","JSPOC","7438","COSMOS 680","PAYLOAD","U","74072D","2016-01-10 18:41:37","345344","12.46594917","0.0015368","74.0356","118.3202","41.7976","115.2306","0","999","87982","1.2929e-05","-1.4e-07","0","1979034","0 COSMOS 680","1  7438U 74072D   16010.77890446 -.00000014 +00000-0 +12929-4 0  9998","2  7438 074.0356 118.3202 0015368 041.7976 115.2306 12.46594917879823","1974-072D","7438","7856.906","115.514","1490.846","1466.697"
"GENERATED VIA SPACETRACK.ORG API","JSPOC","21423","SL-14 R/B","ROCKET BODY","U","91042B","2016-01-10 18:41:41","764704","14.79591961","0.0018201","82.4945","90.5151","160.2679","199.9242","0","999","32518","2.2009e-05","1.88e-06","0","1978633","0 SL-14 R/B","1 21423U 91042B   16010.77895561  .00000188  00000-0  22009-4 0  9998","2 21423  82.4945  90.5151 0018201 160.2679 199.9242 14.79591961325187","1991-042B","21423","7008.749","97.324","643.371","617.857"
"GENERATED VIA SPACETRACK.ORG API","JSPOC","40032","QB50P2","PAYLOAD","U","14033Y","2016-01-10 18:41:59","531136","14.87268982","0.0011199","97.9386","275.7938","212.7323","147.32","0","999","8462","0.00011251","9.59e-06","0","1978693","0 QB50P2","1 40032U 14033Y   16010.77916124  .00000959  00000-0  11251-3 0  9991","2 40032  97.9386 275.7938 0011199 212.7323 147.3200 14.87268982 84627","2014-033Y","40032","6984.609","96.821","614.297","598.652"
"GENERATED VIA SPACETRACK.ORG API","JSPOC","38997","HJ-1C","PAYLOAD","U","12064A","2016-01-10 18:42:01","616832","15.47446379","0.0015549","97.3108","37.1624","106.881","340.4696","0","999","17645","0.00021234","0.00010845","0","1978722","0 HJ-1C","1 38997U 12064A   16010.77918538  .00010845  00000-0  21234-3 0  9998","2 38997  97.3108  37.1624 0015549 106.8810 340.4696 15.47446379176452","2012-064A","38997","6802.336","93.056","434.778","413.624"
"GENERATED VIA SPACETRACK.ORG API","JSPOC","17241","COSMOS 1809","PAYLOAD","U","86101A","2016-01-10 18:42:36","708192","13.84063745","0.001649","82.53","74.2675","56.3829","73.9693","0","999","46794","4.406e-05","6.4e-07","0","1978641","0 COSMOS 1809","1 17241U 86101A   16010.77959153  .00000064  00000-0  44060-4 0  9993","2 17241  82.5300  74.2675 0016490  56.3829  73.9693 13.84063745467947","1986-101A","17241","7327.645","104.041","961.593","937.427"
"GENERATED VIA SPACETRACK.ORG API","JSPOC","24675","ATLAS 2A CENTAUR R/B","ROCKET BODY","U","96070B","2016-01-10 18:42:38","888064","2.22626955","0.702388","22.3659","263.9153","54.4145","359.2978","0","999","15503","0","-7.6e-07","0","1979034","0 ATLAS 2A CENTAUR R/B","1 24675U 96070B   16010.77961676 -.00000076 +00000-0 +00000-0 0  9997","2 24675 022.3659 263.9153 7023880 054.4145 359.2978 02.22626955155039","1996-070B","24675","24775.171","646.821","35798.820","995.253"
"GENERATED VIA SPACETRACK.ORG API","JSPOC","28869","BREEZE-M R/B","ROCKET BODY","U","05036B","2016-01-10 18:42:38","560608","2.10740439","0.6274627","9.6058","255.2975","93.3635","335.1642","0","999","7954","0","-7.8e-07","0","1979034","0 BREEZE-M R/B","1 28869U 05036B   16010.77961297 -.00000078 +00000-0 +00000-0 0  9999","2 28869 009.6058 255.2975 6274627 093.3635 335.1642 02.10740439079540","2005-036B","28869","25698.232","683.305","35444.779","3195.415"
"GENERATED VIA SPACETRACK.ORG API","JSPOC","13120","COSMOS 1346","PAYLOAD","U","82027A","2016-01-10 18:42:55","474272","15.5647666","0.0001867","81.1315","92.2334","310.9016","49.2072","0","999","85147","0.00020819","0.00014773","0","1979034","0 COSMOS 1346","1 13120U 82027A   16010.77980873 +.00014773 +00000-0 +20819-3 0  9998","2 13120 081.1315 092.2334 0001867 310.9016 049.2072 15.56476660851478","1982-027A","13120","6776.000","92.516","399.130","396.600"
"GENERATED VIA SPACETRACK.ORG API","JSPOC","40963","FLOCK 2B 9","PAYLOAD","U","98067HL","2016-01-10 18:42:57","206592","15.63019387","0.000691","51.6406","124.8604","1.2225","358.8785","0","999","1491","0.00039718","0.00036459","0","1978653","0 FLOCK 2B 9","1 40963U 98067HL  16010.77982878  .00036459  00000-0  39718-3 0  9994","2 40963  51.6406 124.8604 0006910   1.2225 358.8785 15.63019387 14911","1998-067HL","40963","6757.077","92.129","383.612","374.273"
"GENERATED VIA SPACETRACK.ORG API","JSPOC","14781","OSCAR 11 (UoSAT 2)","PAYLOAD","U","84021B","2016-01-10 18:42:58","513824","14.82638606","0.0009938","97.7736","67.4397","110.1045","250.1239","0","999","69178","4.4507e-05","3.07e-06","0","1979034","0 OSCAR 11 (UoSAT 2)","1 14781U 84021B   16010.77984391 +.00000307 +00000-0 +44507-4 0  9996","2 14781 097.7736 067.4397 0009938 110.1045 250.1239 14.82638606691786","1984-021B","14781","6999.144","97.124","627.965","614.053"
"GENERATED VIA SPACETRACK.ORG API","JSPOC","26064","FALCONSAT","PAYLOAD","U","00004D","2016-01-10 18:43:05","93184","14.36060617","0.0037817","100.1958","268.7608","358.082","47.6334","0","999","83572","3.1337e-05","3.3e-07","0","1979034","0 FALCONSAT","1 26064U 00004D   16010.77992006 +.00000033 +00000-0 +31337-4 0  9997","2 26064 100.1958 268.7608 0037817 358.0820 047.6334 14.36060617835729","2000-004D","26064","7149.680","100.274","798.583","744.507"
"GENERATED VIA SPACETRACK.ORG API","JSPOC","23680","LUCH 1","PAYLOAD","U","95054A","2016-01-10 18:43:07","218624","1.00266715","0.0003304","13.4182","33.5036","60.7165","11.1068","0","999","7419","0","-1e-06","0","1978684","0 LUCH 1","1 23680U 95054A   16010.77994466 -.00000100  00000-0  00000+0 0  9993","2 23680  13.4182  33.5036 0003304  60.7165  11.1068  1.00266715 74191","1995-054A","23680","42166.153","1436.169","35801.950","35774.086"
"GENERATED VIA SPACETRACK.ORG API","JSPOC","39208","PAYLOAD A","PAYLOAD","U","13037A","2016-01-10 18:43:08","602752","14.68121935","0.0009272","98.0155","27.0528","24.2372","335.9267","0","999","13275","2.7744e-05","1.11e-06","0","1979034","0 PAYLOAD A","1 39208U 13037A   16010.77996068 +.00000111 +00000-0 +27744-4 0  9997","2 39208 098.0155 027.0528 0009272 024.2372 335.9267 14.68121935132759","2013-037A","39208","7045.206","98.084","673.604","660.539"
"GENERATED VIA SPACETRACK.ORG API","JSPOC","26246","SL-12 R/B(2)","ROCKET BODY","U","00019D","2016-01-10 18:43:13","319328","0.99552476","0.0017851","12.7906","34.4097","218.4318","212.6384","0","999","5720","0","2.1e-07","0","1978652","0 SL-12 R/B(2)","1 26246U 00019D   16010.78001527  .00000021  00000-0  00000+0 0  9990","2 26246  12.7906  34.4097 0017851 218.4318 212.6384  0.99552476 57200","2000-019D","26246","42367.593","1446.473","36065.088","35913.828"
"GENERATED VIA SPACETRACK.ORG API","JSPOC","14867","COSMOS 1546","PAYLOAD","U","84031A","2016-01-10 18:43:13","319328","1.00258244","0.0024521","14.4975","346.9518","270.221","207.5208","0","999","7971","0","-9.1e-07","0","1978716","0 COSMOS 1546","1 14867U 84031A   16010.78001527 -.00000091  00000-0  00000+0 0  9990","2 14867  14.4975 346.9518 0024521 270.2210 207.5208  1.00258244 79716","1984-031A","14867","42168.528","1436.290","35893.794","35686.991"
"GENERATED VIA SPACETRACK.ORG API","JSPOC","40979","FLOCK 2B 13","PAYLOAD","U","98067HM","2016-01-10 18:43:21","875520","15.62855097","0.0007915","51.6415","124.8662","350.4668","9.6175","0","999","1481","0.00037059","0.00033762","0","1978659","0 FLOCK 2B 13","1 40979U 98067HM  16010.78011430  .00033762  00000-0  37059-3 0  9999","2 40979  51.6415 124.8662 0007915 350.4668   9.6175 15.62855097 14816","1998-067HM","40979","6757.551","92.139","384.765","374.067"
"GENERATED VIA SPACETRACK.ORG API","JSPOC","36598","PICARD","PAYLOAD","U","10028A","2016-01-10 18:43:23","543904","14.50403968","0.0002186","98.3063","197.1658","116.8599","243.2821","0","999","29488","4.2613e-05","1.23e-06","0","1978664","0 PICARD","1 36598U 10028A   16010.78013361  .00000123  00000-0  42613-4 0  9995","2 36598  98.3063 197.1658 0002186 116.8599 243.2821 14.50403968294888","2010-028A","36598","7102.466","99.282","725.884","722.778"
